{
  "norad_id": 63144,
  "name": "STARLINK-11581 [DTC]",
  "history": [
    {
      "epoch": "2026-03-28T20:10:00.775200",
      "apogee_km": 357.37426488736673,
      "perigee_km": 354.6053266314866,
      "latitude_deg": 34.747546303551296,
      "longitude_deg": -144.93247200013138,
      "semi_major_axis_km": 6734.126795759426,
      "eccentricity": 0.00020559,
      "inclination_deg": 43.0007,
      "raan_deg": 135.3134,
      "arg_perigee_deg": 307.6214,
      "mean_anomaly_deg": 52.4467,
      "mean_motion_rev_day": 15.71016795
    }
  ]
}